#aV2006  6  2  0  0   .00000000      96 DD+AD WGS84 FIT  NGA
## 1377 432000.00000000   900.00000000 53888  .0000000000000
+   29     1  2  3  4  5  6  7  8  9 10 11 13 14 15 16 17 18
+         19 20 21 22 23 24 25 26 27 28 29 30  0  0  0  0  0
+          0  0  0  0  0  0  0  0  0  0  0  0  0  0  0  0  0
+          0  0  0  0  0  0  0  0  0  0  0  0  0  0  0  0  0
+          0  0  0  0  0  0  0  0  0  0  0  0  0  0  0  0  0
++         0  0  0  0  0  0  0  0  0  0  0  0  0  0  0  0  0
++         0  0  0  0  0  0  0  0  0  0  0  0  0  0  0  0  0
++         0  0  0  0  0  0  0  0  0  0  0  0  0  0  0  0  0
++         0  0  0  0  0  0  0  0  0  0  0  0  0  0  0  0  0
++         0  0  0  0  0  0  0  0  0  0  0  0  0  0  0  0  0
%c cc cc ccc ccc cccc cccc cccc cccc ccccc ccccc ccccc ccccc
%c cc cc ccc ccc cccc cccc cccc cccc ccccc ccccc ccccc ccccc
%f  0.0000000  0.000000000  0.00000000000  0.000000000000000
%f  0.0000000  0.000000000  0.00000000000  0.000000000000000
%i    0    0    0    0      0      0      0      0         0
%i    0    0    0    0      0      0      0      0         0
/*      NGA, ST. LOUIS,MO.                                  
/*   EPHEMERIS COMPUTED FROM  3 DAYS OF DATA                
/* CCCCCCCCCCCCCCCCCCCCCCCCCCCCCCCCCCCCCCCCCCCCCCCCCCCCCCCCC
/* CCCCCCCCCCCCCCCCCCCCCCCCCCCCCCCCCCCCCCCCCCCCCCCCCCCCCCCCC
*  2006  6  2  2  0   .00000000                                                 
P  1  14530.746779 -16082.374138 -15124.994541     56.705742                    
V  1  -3488.489338  19264.317394 -23579.987339       .025475                    
P  2 -22173.011341  12407.419718   7097.122351      1.628108                    
V  2  -9944.499604   -174.893568 -29889.997189       .029451                    
P  3  11603.987652 -20436.452061  11909.573213    103.426586                    
V  3   1528.865894  15888.923029  25733.203809       .030802                    
P  4 -26017.117703   5306.857804  -3278.778990    244.278166                    
V  4   3106.401423  -3873.493988 -30927.370943       .087380                    
P  5   8034.313201  20402.659756 -15301.603883     73.970657                    
V  5 -16518.402933  -9824.580468 -21891.093966       .477096                    
P  6   8793.224428  19085.866935  16397.950762    549.005152                    
V  6  -6083.151307  19791.392308 -20086.735180       .143704                    
P  7  16284.250135  -3417.556956  21066.073312    540.052590                    
V  7  -3410.542005  25831.088264   6810.960584       .014889                    
P  8 -24356.619889  -1040.542715  10875.509142    -67.622319                    
V  8  12898.801055  -5414.193075  27604.984722      -.012588                    
P  9  -3649.223503  16736.187538 -20777.853171     22.663713                    
V  9 -24073.569689   7600.449532  10915.157844       .014293                    
P 10  -9994.358114  11036.799434  21891.763895     84.365370                    
V 10 -20379.114482 -19200.885495    675.073847       .006280                    
P 11    620.531765 -17797.692386 -19715.100044    330.812599                    
V 11  23385.232142  -9602.561446   9688.079387       .023519                    
P 13  -6886.509246 -18980.478751  17198.488658     66.272546                    
V 13   6367.422595 -21008.934077 -20470.118745       .028795                    
P 14  14943.176830   -302.024142 -21885.742670    -12.827262                    
V 14  -6029.037380  27220.653190  -4529.081303       .007917                    
P 15  24503.866322   1766.727355  10446.279785    622.062350                    
V 15 -12474.307507   5319.583096  27539.555547       .060088                    
P 16  14578.489858  -6695.382026  21274.144825     46.725325                    
V 16  19218.369472  18664.287105  -7218.393910       .025480                    
P 17 -15300.148343  -1114.181226 -21683.698137     96.432873                    
V 17   5668.475546 -26937.000961  -2710.908017       .020240                    
P 18  19390.106924  18368.987075   -959.126906   -237.725998                    
V 18   -933.894527   2817.371215  31453.238712      -.014788                    
P 19   7651.263874 -25401.420508    584.537436     -7.703049                    
V 19   2670.574728   1397.079529  31714.398954       .020853                    
P 20  -9744.823044 -21062.892921 -13040.316831    -26.000841                    
V 20  13748.519616   9232.899138 -25341.960232       .005558                    
P 21  19034.428742   7676.223942  17199.441969     32.771096                    
V 21 -20340.200261   7380.163421  18750.530469       .025481                    
P 22  21407.010296   8525.219241 -13069.396008    102.245677                    
V 22  10114.095305  13693.836376  25194.465611       .039045                    
P 23    129.316689 -25309.321155   7682.768463    140.341660                    
V 23   4625.343310  -9142.611057 -29979.387515      -.006922                    
P 24 -23313.280586  -2882.476267 -12416.967241     10.314731                    
V 24  14959.471398  -6191.103657 -25899.531163       .027918                    
P 25  24118.885425 -11257.544497   1391.551383    189.262551                    
V 25   2308.797735   2163.497678 -31459.427262       .829107                    
P 26  -8198.155721  24681.044809   3076.842288   -133.587727                    
V 26  -1254.283693  -4897.459288  32473.725370      -.119462                    
P 27 -17969.067887  -7285.744975  18896.069249     51.515102                    
V 27  20714.941763  -9227.181416  16357.934678       .017183                    
P 28 -21970.357466 -11574.692489  -9599.306850     26.127862                    
V 28  -7445.536351 -10311.056475  28271.754596      -.008302                    
P 29 -10030.745266  23313.139935   7552.353286    613.902208                    
V 29    -78.382426  -9544.613593  30563.012936       .053697                    
P 30  17033.465538  19768.343557  -5564.561792    270.018062                    
V 30  -7111.911711  -1988.450351 -30248.990653       .107136                    
EOF
